      2.10          N: GNSS NAV DATA                        RINEX VERSION / TYPE
fic2rin                                 07/08/2024 00:59:01 PGM / RUN BY / DATE
                                                            END OF HEADER
26 24  7  7 16  0  0.0  .124145764858D-03 -.670752342558D-11  .000000000000D+00
     .150000000000D+02 -.166562500000D+02  .547129933015D-08  .560213534365D+00
    -.823289155960D-06  .892977777403D-02  .564940273762D-05  .515365602303D+04
     .576000000000D+05 -.186264514923D-07 -.904299510356D+00  .139698386192D-06
     .930641004933D+00  .254968750000D+03  .541508846668D+00 -.853142679674D-08
    -.310370071016D-09  .100000000000D+01  .232200000000D+04  .000000000000D+00
     .240000000000D+01  .000000000000D+00  .651925802231D-08  .150000000000D+02
     .504000000000D+05  .400000000000D+01
25 24  7  7 16  0  0.0  .498268287629D-03  .454747350886D-12  .000000000000D+00
     .150000000000D+02 -.155937500000D+02  .505592488528D-08  .133299375869D+01
    -.927597284317D-06  .116092762910D-01  .600516796112D-05  .515375835419D+04
     .576000000000D+05 -.230967998505D-06 -.841054201466D+00  .372529029846D-08
     .949927211344D+00  .257718750000D+03  .109015458015D+01 -.834856203683D-08
    -.310727228751D-09  .100000000000D+01  .232200000000D+04  .000000000000D+00
     .240000000000D+01  .000000000000D+00  .512227416039D-08  .150000000000D+02
     .504000000000D+05  .400000000000D+01
22 24  7  7 16  0  0.0 -.367290340364D-04 -.466116034659D-11  .000000000000D+00
     .460000000000D+02 -.114375000000D+02  .475341228442D-08 -.797729313474D+00
    -.700354576111D-06  .142320966115D-01  .715069472790D-05  .515369046974D+04
     .576000000000D+05 -.206753611565D-06 -.732912921268D+00 -.931322574615D-08
     .960836661058D+00  .246625000000D+03 -.113229854508D+01 -.817212611614D-08
    -.229295265354D-09  .100000000000D+01  .232200000000D+04  .000000000000D+00
     .240000000000D+01  .000000000000D+00 -.111758708954D-07  .460000000000D+02
     .504000000000D+05  .400000000000D+01
24 24  7  7 16  0  0.0 -.482029747218D-03 -.181898940355D-11  .000000000000D+00
     .107000000000D+03  .728125000000D+01  .495877798158D-08  .312351047411D+01
     .368803739548D-06  .154549288563D-01  .780075788498D-05  .515370501137D+04
     .576000000000D+05  .949949026108D-07 -.196793901631D+01 -.145286321640D-06
     .933680149949D+00  .212656250000D+03  .986152582768D+00 -.785568436364D-08
     .583595737676D-09  .100000000000D+01  .232200000000D+04  .000000000000D+00
     .240000000000D+01  .000000000000D+00  .232830643654D-08  .107000000000D+03
     .504000000000D+05  .400000000000D+01
27 24  7  7 16  0  0.0 -.305175781250D-04 -.102318153949D-11  .000000000000D+00
     .970000000000D+02  .688437500000D+02  .423767651624D-08 -.125091736305D+01
     .373274087906D-05  .125302666565D-01  .100973993540D-04  .515368749237D+04
     .576000000000D+05  .303611159325D-06  .215870722625D+00  .726431608200D-07
     .961943424416D+00  .183781250000D+03  .798052707607D+00 -.772246452879D-08
    -.157506560780D-09  .100000000000D+01  .232200000000D+04  .000000000000D+00
     .240000000000D+01  .000000000000D+00  .186264514923D-08  .970000000000D+02
     .504000000000D+05  .400000000000D+01
29 24  7  7 16  0  0.0 -.590711366385D-03  .181898940355D-11  .000000000000D+00
     .770000000000D+02  .762500000000D+02  .408767026787D-08 -.132330704370D+01
     .370852649212D-05  .301350012887D-02  .110790133476D-04  .515357324791D+04
     .576000000000D+05 -.335276126862D-07  .299471167296D+00 -.149011611938D-07
     .971128551608D+00  .175437500000D+03  .260179848442D+01 -.767317676147D-08
    -.115719105880D-09  .100000000000D+01  .232200000000D+04  .000000000000D+00
     .240000000000D+01  .000000000000D+00 -.977888703346D-08  .770000000000D+02
     .504000000000D+05  .400000000000D+01
32 24  7  7 16  0  0.0 -.613314565271D-03  .181898940355D-11  .000000000000D+00
     .580000000000D+02 -.847500000000D+02  .417874549009D-08 -.592232148800D+00
    -.449270009995D-05  .777769566048D-02  .988505780697D-05  .515370434380D+04
     .576000000000D+05 -.186264514923D-08 -.292761955661D+01  .145286321640D-06
     .962647955523D+00  .191750000000D+03 -.212970034467D+01 -.792032991353D-08
     .300012496725D-10  .100000000000D+01  .232200000000D+04  .000000000000D+00
     .240000000000D+01  .000000000000D+00  .931322574615D-09  .580000000000D+02
     .504000000000D+05  .400000000000D+01
16 24  7  7 16  0  0.0 -.243270304054D-03  .106865627458D-10  .000000000000D+00
     .900000000000D+02 -.139375000000D+02  .470126725522D-08 -.380623022111D+00
    -.471249222755D-06  .138191536535D-01  .690296292305D-05  .515358091164D+04
     .576000000000D+05 -.745058059692D-08 -.736207371821D+00  .191852450371D-06
     .961508089254D+00  .248437500000D+03  .838393371455D+00 -.822427114533D-08
    -.351443210449D-09  .100000000000D+01  .232200000000D+04  .000000000000D+00
     .240000000000D+01  .000000000000D+00 -.102445483208D-07  .900000000000D+02
     .504000000000D+05  .400000000000D+01
13 24  7  7 16  0  0.0  .663002952933D-03  .250111042988D-11  .000000000000D+00
     .760000000000D+02 -.875625000000D+02  .379837250318D-08 -.158390239189D+01
    -.453367829323D-05  .827207567636D-02  .107567757368D-04  .515366394997D+04
     .576000000000D+05  .234693288803D-06 -.277593954345D+01 -.372529029846D-07
     .972041646556D+00  .178343750000D+03  .931549648222D+00 -.747566853446D-08
     .155006456641D-09  .100000000000D+01  .232200000000D+04  .000000000000D+00
     .240000000000D+01  .000000000000D+00 -.111758708954D-07  .760000000000D+02
     .504000000000D+05  .400000000000D+01
11 24  7  7 16  0  0.0 -.700466334820D-03 -.716227077646D-11  .000000000000D+00
     .300000000000D+02  .109968750000D+03  .462447834237D-08 -.200833924287D+01
     .582262873650D-05  .143338995986D-02  .302307307720D-05  .515373616219D+04
     .576000000000D+05  .875443220139D-07  .131819443321D+01 -.242143869400D-07
     .966043403014D+00  .323656250000D+03 -.259697657770D+01 -.830784605514D-08
     .264296723305D-09  .100000000000D+01  .232200000000D+04  .000000000000D+00
     .240000000000D+01  .000000000000D+00 -.884756445885D-08  .798000000000D+03
     .504000000000D+05  .400000000000D+01
14 24  7  7 16  0  0.0  .443273223937D-03  .898126018001D-11  .000000000000D+00
     .171000000000D+03 -.121875000000D+02  .508092592667D-08  .133494102700D+01
    -.702217221260D-06  .468978972640D-02  .636838376522D-05  .515369115829D+04
     .576000000000D+05 -.447034835815D-07 -.799104728571D+00  .633299350739D-07
     .945322398735D+00  .248062500000D+03 -.287713827233D+01 -.817034032747D-08
    -.390016245742D-09  .100000000000D+01  .232200000000D+04  .000000000000D+00
     .240000000000D+01  .000000000000D+00 -.791624188423D-08  .939000000000D+03
     .504000000000D+05  .400000000000D+01
30 24  7  7 16  0  0.0 -.361798331141D-03  .648014975013D-11  .000000000000D+00
     .640000000000D+02  .152812500000D+02  .520450250271D-08  .197004366973D+01
     .722706317902D-06  .718317111023D-02  .728294253349D-05  .515361044884D+04
     .576000000000D+05 -.115483999252D-06 -.187015701598D+01 -.223517417908D-07
     .935056412076D+00  .227187500000D+03 -.244915894768D+01 -.823391440416D-08
     .472162524607D-09  .100000000000D+01  .232200000000D+04  .000000000000D+00
     .240000000000D+01  .000000000000D+00  .419095158577D-08  .640000000000D+02
     .504000000000D+05  .400000000000D+01
21 24  7  7 16  0  0.0  .110481400043D-03 -.250111042988D-11  .000000000000D+00
     .103000000000D+03  .104562500000D+03  .476734143605D-08 -.147246681767D+01
     .534951686859D-05  .252222770359D-01  .427663326263D-05  .515367232513D+04
     .576000000000D+05 -.314787030220D-06  .117934396583D+01 -.340864062309D-06
     .961376931334D+00  .307250000000D+03 -.551663354582D+00 -.844249452093D-08
     .496806408267D-09  .100000000000D+01  .232200000000D+04  .000000000000D+00
     .240000000000D+01  .000000000000D+00 -.102445483208D-07  .103000000000D+03
     .504000000000D+05  .400000000000D+01
20 24  7  7 16  0  0.0  .373018905520D-03 -.454747350886D-12  .000000000000D+00
     .690000000000D+02 -.554375000000D+02  .496663545173D-08 -.288206697062D+01
    -.281259417534D-05  .367667223327D-02  .186264514923D-06  .515355720139D+04
     .576000000000D+05 -.670552253723D-07  .214128159124D+01 -.106170773506D-06
     .954308095083D+00  .368125000000D+03 -.258250667504D+01 -.854249868650D-08
    -.257510726355D-09  .100000000000D+01  .232200000000D+04  .000000000000D+00
     .240000000000D+01  .000000000000D+00 -.838190317154D-08  .690000000000D+02
     .504000000000D+05  .400000000000D+01
17 24  7  7 16  0  0.0  .682027544826D-03 -.704858393874D-11  .000000000000D+00
     .760000000000D+02  .967812500000D+02  .412195741036D-08 -.133388522147D+01
     .513717532158D-05  .133995293872D-01  .109691172838D-04  .515376573372D+04
     .576000000000D+05 -.299885869026D-06  .284377648991D+00  .150874257088D-06
     .968689918372D+00  .179562500000D+03 -.131586774539D+01 -.778139555493D-08
    -.170007081477D-09  .100000000000D+01  .232200000000D+04  .000000000000D+00
     .240000000000D+01  .000000000000D+00 -.111758708954D-07  .760000000000D+02
     .504000000000D+05  .400000000000D+01
19 24  7  7 16  0  0.0  .507098622620D-03  .545696821064D-11  .000000000000D+00
     .610000000000D+02  .855312500000D+02  .421267547484D-08  .634143323963D+00
     .440329313278D-05  .998034956865D-02  .106580555439D-04  .515372075081D+04
     .576000000000D+05  .122934579849D-06  .328648126268D+00 -.152736902237D-06
     .967875804461D+00  .177656250000D+03  .258540739143D+01 -.777675250439D-08
    -.141791620476D-09  .100000000000D+01  .232200000000D+04  .000000000000D+00
     .240000000000D+01  .000000000000D+00 -.153668224812D-07  .610000000000D+02
     .504000000000D+05  .400000000000D+01
